NORAD_CAT_ID,OBJECT_NAME,OBJECT_TYPE,EPOCH,MEAN_MOTION,ECCENTRICITY,INCLINATION,RA_OF_ASC_NODE,ARG_OF_PERICENTER,MEAN_ANOMALY,BSTAR,MEAN_MOTION_DOT,MEAN_MOTION_DDOT,TLE_LINE0,TLE_LINE1,TLE_LINE2,SEMIMAJOR_AXIS,PERIOD,APOGEE,PERIGEE,DECAYED
53902.0,STARLINK-5021,PAYLOAD,2023-02-07 23:27:13,15.73225859,9.07e-05,53.2133,299.5576,87.1736,272.9388,2.9151e-05,3.478e-05,0.0,0 STARLINK-5021,1 53902U 22119S   23038.97723633  .00003478  00000-0  29151-4 0  9994,2 53902  53.2133 299.5576 0000907  87.1736 272.9388 15.73225859 22278,6727.821,91.532,350.297,349.076,0.0
53902.0,STARLINK-5021,PAYLOAD,2023-02-08 22:19:27,15.73178524,0.0001227,53.2136,294.8428,56.0569,304.0568,-4.1868e-05,-6.485e-05,0.0,0 STARLINK-5021,1 53902U 22119S   23039.93018433 -.00006485  00000-0 -41868-4 0  9998,2 53902  53.2136 294.8428 0001227  56.0569 304.0568 15.73178524 22420,6727.956,91.534,350.647,348.996,0.0
53902.0,STARLINK-5021,PAYLOAD,2023-02-09 02:53:53,15.7319687,9.56e-05,53.213,293.8982,97.2258,262.887,7.5871e-06,4.45e-06,0.0,0 STARLINK-5021,1 53902U 22119S   23040.12076357  .00000445  00000-0  75871-5 0  9990,2 53902  53.2130 293.8982 0000956  97.2258 262.8870 15.73196870 22025,6727.904,91.533,350.412,349.126,0.0
53902.0,STARLINK-5021,PAYLOAD,2023-02-09 21:11:39,15.73217215,0.0001086,53.214,290.1261,99.5319,260.5824,5.6921e-05,7.382e-05,0.0,0 STARLINK-5021,1 53902U 22119S   23040.88309071  .00007382  00000-0  56921-4 0  9996,2 53902  53.2140 290.1261 0001086  99.5319 260.5824 15.73217215 22148,6727.846,91.532,350.442,348.98,0.0
53902.0,STARLINK-5021,PAYLOAD,2023-02-10 01:46:05,15.7322896,9.03e-05,53.2129,289.1819,95.166,264.9463,8.19e-05,0.00010903,0.0,0 STARLINK-5021,1 53902U 22119S   23041.07367035  .00010903  00000-0  81900-4 0  9990,2 53902  53.2129 289.1819 0000903  95.1660 264.9463 15.73228960 22179,6727.813,91.531,350.285,349.07,0.0
53902.0,STARLINK-5021,PAYLOAD,2023-02-10 23:06:48,15.73215076,0.0001155,53.2124,284.7803,101.4082,258.7068,2.0387e-05,2.244e-05,0.0,0 STARLINK-5021,1 53902U 22119S   23041.96306502  .00002244  00000-0  20387-4 0  9991,2 53902  53.2124 284.7803 0001155 101.4082 258.7068 15.73215076 22319,6727.852,91.532,350.494,348.94,0.0
53902.0,STARLINK-5021,PAYLOAD,2023-02-12 08:39:21,15.7319453,9.2e-05,53.2131,277.8652,117.9535,242.1578,-3.959e-05,-6.17e-05,0.0,0 STARLINK-5021,1 53902U 22119S   23043.36066672 -.00006170  00000-0 -39590-4 0  9998,2 53902  53.2131 277.8652 0000920 117.9535 242.1578 15.73194530 22534,6727.911,91.533,350.395,349.157,0.0
53902.0,STARLINK-5021,PAYLOAD,2023-02-12 16:16:46,15.7322037,8.99e-05,53.2139,276.2929,96.216,263.8962,4.9292e-05,6.309e-05,0.0,0 STARLINK-5021,1 53902U 22119S   23043.67831243  .00006309  00000-0  49292-4 0  9998,2 53902  53.2139 276.2929 0000899  96.2160 263.8962 15.73220370 22584,6727.837,91.532,350.307,349.097,0.0
53902.0,STARLINK-5021,PAYLOAD,2023-02-13 01:25:39,15.73214686,7.68e-05,53.2138,274.4058,74.8024,285.3081,3.7642e-05,4.67e-05,0.0,0 STARLINK-5021,1 53902U 22119S   23044.05948055  .00004670  00000-0  37642-4 0  9996,2 53902  53.2138 274.4058 0000768  74.8024 285.3081 15.73214686 22643,6727.853,91.532,350.235,349.202,0.0
53902.0,STARLINK-5021,PAYLOAD,2023-02-13 02:57:07,15.73232196,6.55e-05,53.2139,274.092,150.5464,209.5594,6.8622e-05,9.035e-05,0.0,0 STARLINK-5021,1 53902U 22119S   23044.12299970  .00009035  00000-0  68622-4 0  9991,2 53902  53.2139 274.0920 0000655 150.5464 209.5594 15.73232196 22657,6727.803,91.531,350.109,349.228,0.0
53902.0,STARLINK-5021,PAYLOAD,2023-02-13 18:11:56,15.73206902,8e-05,53.214,270.948,87.929,272.1822,-2.2572e-05,-3.786e-05,0.0,0 STARLINK-5021,1 53902U 22119S   23044.75828925 -.00003786  00000-0 -22572-4 0  9991,2 53902  53.2140 270.9480 0000800  87.9290 272.1822 15.73206902 22754,6727.875,91.533,350.279,349.202,0.0
53902.0,STARLINK-5021,PAYLOAD,2023-02-14 01:49:19,15.73218445,0.0001396,53.2138,269.3763,66.2797,293.8369,1.4916e-05,1.475e-05,0.0,0 STARLINK-5021,1 53902U 22119S   23045.07592423  .00001475  00000-0  14916-4 0  9992,2 53902  53.2138 269.3763 0001396  66.2797 293.8369 15.73218445 22807,6727.843,91.532,350.647,348.768,0.0
53902.0,STARLINK-5021,PAYLOAD,2023-02-14 07:55:15,15.73198187,9.99e-05,53.214,268.1189,96.1636,263.9498,-1.8996e-05,-3.284e-05,0.0,0 STARLINK-5021,1 53902U 22119S   23045.33004319 -.00003284  00000-0 -18996-4 0  9997,2 53902  53.2140 268.1189 0000999  96.1636 263.9498 15.73198187 22846,6727.9,91.533,350.437,349.093,0.0
53902.0,STARLINK-5021,PAYLOAD,2023-02-14 18:35:36,15.73216014,0.00011,53.2138,265.919,93.9606,266.1539,2.2485e-05,2.539e-05,0.0,0 STARLINK-5021,1 53902U 22119S   23045.77473238  .00002539  00000-0  22485-4 0  9993,2 53902  53.2138 265.9190 0001100  93.9606 266.1539 15.73216014 22916,6727.85,91.532,350.455,348.974,0.0
53902.0,STARLINK-5021,PAYLOAD,2023-02-14 20:07:06,15.73198562,0.0001891,53.2139,265.6035,117.1216,242.9997,-3.0154e-05,-4.85e-05,0.0,0 STARLINK-5021,1 53902U 22119S   23045.83826428 -.00004850  00000-0 -30154-4 0  9995,2 53902  53.2139 265.6035 0001891 117.1216 242.9997 15.73198562 23351,6727.899,91.533,351.037,348.492,0.0
53902.0,STARLINK-5021,PAYLOAD,2023-02-15 02:13:00,15.73220827,5.05e-05,53.2138,264.3466,110.4527,249.6548,4.1853e-05,5.264e-05,0.0,0 STARLINK-5021,1 53902U 22119S   23046.09236577  .00005264  00000-0  41853-4 0  9990,2 53902  53.2138 264.3466 0000505 110.4527 249.6548 15.73220827 23396,6727.836,91.532,350.041,349.361,0.0
53902.0,STARLINK-5021,PAYLOAD,2023-02-15 23:33:42,15.73188725,0.00014,53.2144,259.9432,91.5296,268.5884,0.00014975,0.00020437,0.0,0 STARLINK-5021,1 53902U 22119S   23046.98174555  .00020437  00000-0  14975-3 0  9998,2 53902  53.2144 259.9432 0001400  91.5296 268.5884 15.73188725 23105,6727.927,91.534,350.734,348.85,0.0
53902.0,STARLINK-5021,PAYLOAD,2023-02-16 19:22:59,15.73175511,0.0001483,53.2141,255.8588,127.3786,232.7369,3.837e-05,4.762e-05,0.0,0 STARLINK-5021,1 53902U 22119S   23047.80763130  .00004762  00000-0  38370-4 0  9992,2 53902  53.2141 255.8588 0001483 127.3786 232.7369 15.73175511 23236,6727.965,91.535,350.828,348.832,0.0
53902.0,STARLINK-5021,PAYLOAD,2023-02-16 20:54:26,15.73238845,7.64e-05,53.2138,255.5443,121.9838,238.1257,0.00016776,0.00023028,0.0,0 STARLINK-5021,1 53902U 22119S   23047.87113791  .00023028  00000-0  16776-3 0  9992,2 53902  53.2138 255.5443 0000764 121.9838 238.1257 15.73238845 23672,6727.784,91.531,350.163,349.135,0.0
53902.0,STARLINK-5021,PAYLOAD,2023-02-17 01:28:54,15.7319391,8.66e-05,53.2137,254.6013,114.1664,245.9447,5.1598e-05,6.626e-05,0.0,0 STARLINK-5021,1 53902U 22119S   23048.06173759  .00006626  00000-0  51598-4 0  9991,2 53902  53.2137 254.6013 0000866 114.1664 245.9447 15.73193910 23274,6727.913,91.534,350.36,349.195,0.0
53902.0,STARLINK-5021,PAYLOAD,2023-02-17 19:46:41,15.73171676,6.06e-05,53.2141,250.8286,102.2867,257.8221,-2.1141e-05,-3.58e-05,0.0,0 STARLINK-5021,1 53902U 22119S   23048.82408664 -.00003580  00000-0 -21141-4 0  9990,2 53902  53.2141 250.8286 0000606 102.2867 257.8221 15.73171676 23394,6727.976,91.535,350.249,349.433,0.0
53902.0,STARLINK-5021,PAYLOAD,2023-02-17 21:18:09,15.73182672,7.59e-05,53.2137,250.514,91.9352,268.1755,-1.0651e-05,-2.112e-05,0.0,0 STARLINK-5021,1 53902U 22119S   23048.88760911 -.00002112  00000-0 -10651-4 0  9996,2 53902  53.2137 250.5140 0000759  91.9352 268.1755 15.73182672 23831,6727.945,91.534,350.32,349.299,0.0
53902.0,STARLINK-5021,PAYLOAD,2023-02-18 00:21:07,15.73181955,4.58e-05,53.2137,249.8851,104.226,255.8811,-1.6062e-05,-2.87e-05,0.0,0 STARLINK-5021,1 53902U 22119S   23049.01466548 -.00002870  00000-0 -16062-4 0  9994,2 53902  53.2137 249.8851 0000458 104.2260 255.8811 15.73181955 23427,6727.947,91.534,350.12,349.503,0.0
53902.0,STARLINK-5021,PAYLOAD,2023-02-18 06:27:10,15.7295738,0.0001235,53.2134,248.6283,55.5067,304.6069,-0.00048502,-0.00067445,0.0,0 STARLINK-5021,1 53902U 22119S   23049.26887418 -.00067445  00000-0 -48502-3 0  9996,2 53902  53.2134 248.6283 0001235  55.5067 304.6069 15.72957380 23461,6728.587,91.547,351.283,349.621,0.0
53902.0,STARLINK-5021,PAYLOAD,2023-02-18 12:33:18,15.72671231,5.32e-05,53.2135,247.3717,100.8951,259.2129,-0.0010573,-0.00143225,0.0,0 STARLINK-5021,1 53902U 22119S   23049.52313567 -.00143225  00000-0 -10573-2 0  9991,2 53902  53.2135 247.3717 0000532 100.8951 259.2129 15.72671231 23937,6729.403,91.564,351.626,350.91,0.0
53902.0,STARLINK-5021,PAYLOAD,2023-02-19 02:17:29,15.71815997,8.53e-05,53.2125,244.5444,46.74,313.3691,-0.0023492,-0.00300524,0.0,0 STARLINK-5021,1 53902U 22119S   23050.09548237 -.00300524  00000-0 -23492-2 0  9990,2 53902  53.2125 244.5444 0000853  46.7400 313.3691 15.71815997 23591,6731.844,91.614,354.283,353.135,0.0
53902.0,STARLINK-5021,PAYLOAD,2023-02-19 14:00:01,15.70152,0.000122,53.2122,242.1382,116.1071,124.714,-0.008323,-0.00934747,0.0,0 STARLINK-5021,1 53902U 22119S   23050.58334491 -.00934747  00000-0 -83230-2 0  9995,2 53902  53.2122 242.1382 0001220 116.1071 124.7140 15.70152000 23678,6736.599,91.711,359.286,357.642,0.0
53902.0,STARLINK-5021,PAYLOAD,2023-02-20 14:00:01,15.68196042,0.0001092,53.212,237.219,94.9544,38.0644,-0.0089853,-0.00930577,0.0,0 STARLINK-5021,1 53902U 22119S   23051.58334491 -.00930577  00000-0 -89853-2 0  9990,2 53902  53.2120 237.2190 0001092  94.9544  38.0644 15.68196042  1306,6742.2,91.825,364.801,363.328,0.0
53902.0,STARLINK-5021,PAYLOAD,2023-02-20 22:00:01,15.67509448,0.0001078,53.2117,235.5841,82.6336,132.9639,-0.0086217,-0.00860561,0.0,0 STARLINK-5021,1 53902U 22119S   23051.91668981 -.00860561  00000-0 -86217-2 0  9997,2 53902  53.2117 235.5841 0001078  82.6336 132.9639 15.67509448 23885,6744.168,91.865,366.76,365.306,0.0
53902.0,STARLINK-5021,PAYLOAD,2023-02-21 14:00:01,15.66248341,9e-05,53.2119,232.3139,90.9779,287.1958,-0.0098487,-0.00940775,0.0,0 STARLINK-5021,1 53902U 22119S   23052.58334491 -.00940775  00000-0 -98487-2 0  9995,2 53902  53.2119 232.3139 0000900  90.9779 287.1958 15.66248341 23987,6747.788,91.939,370.26,369.046,0.0
